NORAD_CAT_ID,OBJECT_NAME,OBJECT_TYPE,EPOCH,MEAN_MOTION,ECCENTRICITY,INCLINATION,RA_OF_ASC_NODE,ARG_OF_PERICENTER,MEAN_ANOMALY,BSTAR,MEAN_MOTION_DOT,MEAN_MOTION_DDOT,TLE_LINE0,TLE_LINE1,TLE_LINE2,SEMIMAJOR_AXIS,PERIOD,APOGEE,PERIGEE,DECAYED
51999.0,STARLINK-3667,PAYLOAD,2023-08-28 14:36:26,15.08840884,0.000148,53.2168,207.4728,78.5579,281.558,-4.786e-06,-3.64e-06,0.0,0 STARLINK-3667,1 51999U 22025AV  23240.60864351 -.00000364  00000-0 -47860-5 0  9993,2 51999  53.2168 207.4728 0001480  78.5579 281.5580 15.08840884 81413,6917.878,95.437,540.767,538.719,0.0
51999.0,STARLINK-3667,PAYLOAD,2023-08-29 01:44:09,15.08833202,0.0001332,53.217,205.3917,93.9893,266.1251,-1.5878e-05,-5.41e-06,0.0,0 STARLINK-3667,1 51999U 22025AV  23241.07233012 -.00000541  00000-0 -15878-4 0  9999,2 51999  53.2170 205.3917 0001332  93.9893 266.1251 15.08833202 82993,6917.901,95.438,540.688,538.845,0.0
51999.0,STARLINK-3667,PAYLOAD,2023-08-29 06:30:18,15.08836503,0.000133,53.2171,204.4998,93.9066,266.2078,1.5788e-05,-3.7e-07,0.0,0 STARLINK-3667,1 51999U 22025AV  23241.27104726 -.00000037  00000-0  15788-4 0  9999,2 51999  53.2171 204.4998 0001330  93.9066 266.2078 15.08836503 81515,6917.891,95.438,540.676,538.836,0.0
51999.0,STARLINK-3667,PAYLOAD,2023-08-30 06:21:05,15.08814904,0.0001497,53.2169,200.0399,93.742,266.3743,0.00036269,5.485e-05,0.0,0 STARLINK-3667,1 51999U 22025AV  23242.26465176  .00005485  00000-0  36269-3 0  9995,2 51999  53.2169 200.0399 0001497  93.7420 266.3743 15.08814904 83170,6917.957,95.439,540.858,538.786,0.0
51999.0,STARLINK-3667,PAYLOAD,2023-08-30 14:18:01,15.08840112,0.0001368,53.217,198.5525,88.3424,271.7725,1.3624e-05,-7.1e-07,0.0,0 STARLINK-3667,1 51999U 22025AV  23242.59584818 -.00000071  00000-0  13624-4 0  9994,2 51999  53.2170 198.5525 0001368  88.3424 271.7725 15.08840112 83221,6917.88,95.438,540.691,538.799,0.0
51999.0,STARLINK-3667,PAYLOAD,2023-08-31 07:47:15,15.0883471,0.0001471,53.2165,195.2814,98.108,262.0079,0.00014384,2.002e-05,0.0,0 STARLINK-3667,1 51999U 22025AV  23243.32448806  .00002002  00000-0  14384-3 0  9990,2 51999  53.2165 195.2814 0001471  98.1080 262.0079 15.08834710 81828,6917.897,95.438,540.779,538.744,0.0
51999.0,STARLINK-3667,PAYLOAD,2023-09-01 02:51:53,15.08833801,0.0001337,53.2159,191.7126,89.0834,271.0311,1.0619e-05,-1.19e-06,0.0,0 STARLINK-3667,1 51999U 22025AV  23244.11937468 -.00000119  00000-0  10619-4 0  9991,2 51999  53.2159 191.7126 0001337  89.0834 271.0311 15.08833801 83455,6917.899,95.438,540.689,538.839,0.0
51999.0,STARLINK-3667,PAYLOAD,2023-09-01 13:59:35,15.08847814,0.0001434,53.2157,189.6316,108.111,252.0038,-3.5651e-05,-8.55e-06,0.0,0 STARLINK-3667,1 51999U 22025AV  23244.58304626 -.00000855  00000-0 -35651-4 0  9997,2 51999  53.2157 189.6316 0001434 108.1110 252.0038 15.08847814 82013,6917.857,95.437,540.714,538.729,0.0
51999.0,STARLINK-3667,PAYLOAD,2023-09-02 05:53:25,15.08849073,0.000153,53.2146,186.6575,86.9599,273.1568,0.00013748,1.901e-05,0.0,0 STARLINK-3667,1 51999U 22025AV  23245.24543896  .00001901  00000-0  13748-3 0  9998,2 51999  53.2146 186.6575 0001530  86.9599 273.1568 15.08849073 82118,6917.853,95.437,540.776,538.659,0.0
51999.0,STARLINK-3667,PAYLOAD,2023-09-02 13:50:23,15.08830907,0.0002601,53.2087,185.1707,91.9165,268.2125,3.5085e-05,2.7e-06,0.0,0 STARLINK-3667,1 51999U 22025AV  23245.57665711  .00000270  00000-0  35085-4 0  9992,2 51999  53.2087 185.1707 0002601  91.9165 268.2125 15.08830907 83670,6917.908,95.438,541.573,537.974,0.0
51999.0,STARLINK-3667,PAYLOAD,2023-09-02 20:11:55,15.08833242,0.0001293,53.2155,183.9806,98.0818,262.0321,4.1267e-06,-2.22e-06,0.0,0 STARLINK-3667,1 51999U 22025AV  23245.84161319 -.00000222  00000-0  41267-5 0  9995,2 51999  53.2155 183.9806 0001293  98.0818 262.0321 15.08833242 82204,6917.901,95.438,540.661,538.872,0.0
51999.0,STARLINK-3667,PAYLOAD,2023-09-03 02:33:27,15.08841341,0.0001212,53.2168,182.7923,92.4427,267.6704,-7.8996e-06,-4.14e-06,0.0,0 STARLINK-3667,1 51999U 22025AV  23246.10656920 -.00000414  00000-0 -78996-5 0  9995,2 51999  53.2168 182.7923 0001212  92.4427 267.6704 15.08841341 83756,6917.876,95.437,540.58,538.903,0.0
51999.0,STARLINK-3667,PAYLOAD,2023-09-03 05:44:13,15.08843622,0.0001254,53.2169,182.1969,94.5965,265.517,1.3142e-05,-7.9e-07,0.0,0 STARLINK-3667,1 51999U 22025AV  23246.23904737 -.00000079  00000-0  13142-4 0  9998,2 51999  53.2169 182.1969 0001254  94.5965 265.5170 15.08843622 82260,6917.869,95.437,540.602,538.867,0.0
51999.0,STARLINK-3667,PAYLOAD,2023-09-04 02:24:15,15.08835562,0.0001316,53.2159,178.3314,87.2089,272.9053,-9.1013e-05,-1.736e-05,0.0,0 STARLINK-3667,1 51999U 22025AV  23247.10017833 -.00001736  00000-0 -91013-4 0  9992,2 51999  53.2159 178.3314 0001316  87.2089 272.9053 15.08835562 83903,6917.894,95.438,540.669,538.849,0.0
51999.0,STARLINK-3667,PAYLOAD,2023-09-05 03:50:25,15.08838492,0.0001113,53.2174,173.5736,87.5191,272.5928,5.8616e-05,6.45e-06,0.0,0 STARLINK-3667,1 51999U 22025AV  23248.16001552  .00000645  00000-0  58616-4 0  9998,2 51999  53.2174 173.5736 0001113  87.5191 272.5928 15.08838492 84067,6917.885,95.438,540.52,538.98,0.0
51999.0,STARLINK-3667,PAYLOAD,2023-09-06 05:16:35,15.08838445,0.0001173,53.2175,168.8165,86.9499,273.1627,0.00011411,1.529e-05,0.0,0 STARLINK-3667,1 51999U 22025AV  23249.21985709  .00001529  00000-0  11411-3 0  9993,2 51999  53.2175 168.8165 0001173  86.9499 273.1627 15.08838445 84220,6917.885,95.438,540.562,538.939,0.0
51999.0,STARLINK-3667,PAYLOAD,2023-09-07 03:31:59,15.08842479,0.0001162,53.218,164.6523,89.0561,271.0564,1.6308e-05,-2.8e-07,0.0,0 STARLINK-3667,1 51999U 22025AV  23250.14721773 -.00000028  00000-0  16308-4 0  9991,2 51999  53.2180 164.6523 0001162  89.0561 271.0564 15.08842479 82856,6917.873,95.437,540.542,538.934,0.0
51999.0,STARLINK-3667,PAYLOAD,2023-09-07 17:50:28,15.0883736,0.0001168,53.2176,161.9775,86.2785,273.834,7.5666e-06,-1.67e-06,0.0,0 STARLINK-3667,1 51999U 22025AV  23250.74338049 -.00000167  00000-0  75666-5 0  9994,2 51999  53.2176 161.9775 0001168  86.2785 273.8340 15.08837360 82948,6917.888,95.438,540.561,538.945,0.0
51999.0,STARLINK-3667,PAYLOAD,2023-09-08 03:22:46,15.0886383,0.0001587,53.2184,160.1929,77.6628,282.4542,-0.00015536,-2.761e-05,0.0,0 STARLINK-3667,1 51999U 22025AV  23251.14081337 -.00002761  00000-0 -15536-3 0  9995,2 51999  53.2184 160.1929 0001587  77.6628 282.4542 15.08863830 84510,6917.808,95.436,540.77,538.575,0.0
51999.0,STARLINK-3667,PAYLOAD,2023-09-08 17:41:14,15.08839316,0.0001547,53.2202,157.5173,107.4716,252.6445,4.1843e-05,3.78e-06,0.0,0 STARLINK-3667,1 51999U 22025AV  23251.73697821  .00000378  00000-0  41843-4 0  9992,2 51999  53.2202 157.5173 0001547 107.4716 252.6445 15.08839316 84601,6917.882,95.438,540.818,538.677,0.0
51999.0,STARLINK-3667,PAYLOAD,2023-09-09 11:10:29,15.08838249,0.0001121,53.2161,154.2451,95.151,264.961,6.5194e-05,7.5e-06,0.0,0 STARLINK-3667,1 51999U 22025AV  23252.46561791  .00000750  00000-0  65194-4 0  9998,2 51999  53.2161 154.2451 0001121  95.1510 264.9610 15.08838249 83200,6917.886,95.438,540.526,538.975,0.0
51999.0,STARLINK-3667,PAYLOAD,2023-09-09 23:53:34,15.08842525,0.0001543,53.2177,151.8654,107.2033,252.9128,3.4952e-05,2.68e-06,0.0,0 STARLINK-3667,1 51999U 22025AV  23252.99553667  .00000268  00000-0  34952-4 0  9991,2 51999  53.2177 151.8654 0001543 107.2033 252.9128 15.08842525 84796,6917.873,95.437,540.805,538.67,0.0
51999.0,STARLINK-3667,PAYLOAD,2023-09-10 03:04:20,15.088439,0.000156,53.2178,151.2705,107.0181,253.0982,4.4698e-05,4.24e-06,0.0,0 STARLINK-3667,1 51999U 22025AV  23253.12801531  .00000424  00000-0  44698-4 0  9995,2 51999  53.2178 151.2705 0001560 107.0181 253.0982 15.08843900 83303,6917.868,95.437,540.813,538.654,0.0
51999.0,STARLINK-3667,PAYLOAD,2023-09-10 17:22:49,15.08836729,0.0001278,53.2163,148.5952,91.7791,268.3348,-2.9882e-05,-7.63e-06,0.0,0 STARLINK-3667,1 51999U 22025AV  23253.72418344 -.00000763  00000-0 -29882-4 0  9993,2 51999  53.2163 148.5952 0001278  91.7791 268.3348 15.08836729 84905,6917.89,95.438,540.639,538.871,0.0
51999.0,STARLINK-3667,PAYLOAD,2023-09-11 02:55:07,15.08842539,0.0001333,53.2168,146.811,97.4485,262.6658,1.5501e-05,-4.1e-07,0.0,0 STARLINK-3667,1 51999U 22025AV  23254.12161821 -.00000041  00000-0  15501-4 0  9994,2 51999  53.2168 146.8110 0001333  97.4485 262.6658 15.08842539 84965,6917.873,95.437,540.66,538.815,0.0
51999.0,STARLINK-3667,PAYLOAD,2023-09-12 02:45:54,15.0884694,0.0001363,53.2173,142.3518,88.1919,271.9229,3.3051e-05,2.38e-06,0.0,0 STARLINK-3667,1 51999U 22025AV  23255.11521693  .00000238  00000-0  33051-4 0  9998,2 51999  53.2173 142.3518 0001363  88.1919 271.9229 15.08846940 83603,6917.859,95.437,540.667,538.781,0.0
51999.0,STARLINK-3667,PAYLOAD,2023-09-12 20:15:10,15.08835516,0.0001334,53.2181,139.083,97.8802,262.2341,2.6529e-05,1.34e-06,0.0,0 STARLINK-3667,1 51999U 22025AV  23255.84386611  .00000134  00000-0  26529-4 0  9994,2 51999  53.2181 139.0830 0001334  97.8802 262.2341 15.08835516 83715,6917.894,95.438,540.682,538.836,0.0
51999.0,STARLINK-3667,PAYLOAD,2023-09-12 23:25:56,15.08838166,0.0001379,53.2182,138.4897,99.6169,260.4979,5.5706e-05,5.99e-06,0.0,0 STARLINK-3667,1 51999U 22025AV  23255.97634383  .00000599  00000-0  55706-4 0  9994,2 51999  53.2182 138.4897 0001379  99.6169 260.4979 15.08838166 85248,6917.886,95.438,540.705,538.797,0.0
51999.0,STARLINK-3667,PAYLOAD,2023-09-13 02:36:41,15.08849103,0.0001239,53.2178,137.8909,91.1891,268.9243,0.00012142,1.646e-05,0.0,0 STARLINK-3667,1 51999U 22025AV  23256.10881472  .00001646  00000-0  12142-3 0  9993,2 51999  53.2178 137.8909 0001239  91.1891 268.9243 15.08849103 85266,6917.853,95.437,540.575,538.86,0.0
51999.0,STARLINK-3667,PAYLOAD,2023-09-13 16:55:10,15.08845083,0.0001159,53.2179,135.2143,82.7112,277.4012,4.8826e-06,-2.1e-06,0.0,0 STARLINK-3667,1 51999U 22025AV  23256.70497964 -.00000210  00000-0  48826-5 0  9995,2 51999  53.2179 135.2143 0001159  82.7112 277.4012 15.08845083 85354,6917.865,95.437,540.532,538.928,0.0
